[{"OBJECT_NAME":"STARLINK-31870","OBJECT_ID":"2024-093F","EPOCH":"2026-03-09T10:51:54.677952","MEAN_MOTION":15.27576119,"ECCENTRICITY":0.0002303,"INCLINATION":43.0031,"RA_OF_ASC_NODE":209.8538,"ARG_OF_PERICENTER":284.0443,"MEAN_ANOMALY":76.0153,"EPHEMERIS_TYPE":0,"CLASSIFICATION_TYPE":"U","NORAD_CAT_ID":59787,"ELEMENT_SET_NO":999,"REV_AT_EPOCH":10266,"BSTAR":0.00015361216,"MEAN_MOTION_DOT":3.967e-5,"MEAN_MOTION_DDOT":0},{"OBJECT_NAME":"SL-3 R\/B","OBJECT_ID":"1982-027B","EPOCH":"2026-03-09T22:44:40.208640","MEAN_MOTION":15.28335844,"ECCENTRICITY":0.00065199,"INCLINATION":81.188,"RA_OF_ASC_NODE":37.4466,"ARG_OF_PERICENTER":276.581,"MEAN_ANOMALY":83.4683,"EPHEMERIS_TYPE":0,"CLASSIFICATION_TYPE":"U","NORAD_CAT_ID":13121,"ELEMENT_SET_NO":999,"REV_AT_EPOCH":39859,"BSTAR":0.00030526741,"MEAN_MOTION_DOT":8.453e-5,"MEAN_MOTION_DDOT":0}]
